{
  "type": "FeatureCollection",
  "features": [
    {
      "type": "Feature",
      "properties": {
        "norad_id": 31307,
        "name": "GALAXY 17 (G-17)",
        "group": "intelsat",
        "lat": 0.962373311097325,
        "lon": -120.90083328252986,
        "alt_km": 35762.93859003061,
        "timestamp": "2025-12-17T15:50:09.444565+00:00",
        "meta_object_name": "GALAXY 17 (G-17)",
        "meta_object_id": "2007-016B",
        "meta_epoch": "2025-12-17T06:03:38.655936",
        "meta_mean_motion": 1.00272012,
        "meta_eccentricity": 0.00055326,
        "meta_inclination": 2.5111,
        "meta_ra_of_asc_node": 82.2351,
        "meta_arg_of_pericenter": 167.9961,
        "meta_mean_anomaly": 201.838,
        "meta_ephemeris_type": 0,
        "meta_classification_type": "U",
        "meta_norad_cat_id": 31307,
        "meta_element_set_no": 999,
        "meta_rev_at_epoch": 6798,
        "meta_bstar": 0,
        "meta_mean_motion_dot": -1.84e-06,
        "meta_mean_motion_ddot": 0,
        "tle_line1": "1 31307U 07016B   25351.25253074 -.00000184  00000+0  00000+0 0  9994",
        "tle_line2": "2 31307   2.5111  82.2351 0005532 167.9961 201.8380  1.00272012 67988"
      },
      "geometry": {
        "type": "Point",
        "coordinates": [
          -120.90083328252986,
          0.962373311097325
        ]
      }
    },
    {
      "type": "Feature",
      "properties": {
        "norad_id": 31862,
        "name": "DIRECTV 10",
        "group": "intelsat",
        "lat": 0.00988355774980751,
        "lon": -138.74255989349626,
        "alt_km": 35785.243018552945,
        "timestamp": "2025-12-17T15:50:09.444576+00:00",
        "meta_object_name": "DIRECTV 10",
        "meta_object_id": "2007-032A",
        "meta_epoch": "2025-12-17T07:02:53.517408",
        "meta_mean_motion": 1.00269426,
        "meta_eccentricity": 3.669e-05,
        "meta_inclination": 0.0146,
        "meta_ra_of_asc_node": 159.5204,
        "meta_arg_of_pericenter": 48.9964,
        "meta_mean_anomaly": 240.5776,
        "meta_ephemeris_type": 0,
        "meta_classification_type": "U",
        "meta_norad_cat_id": 31862,
        "meta_element_set_no": 999,
        "meta_rev_at_epoch": 4376,
        "meta_bstar": 0,
        "meta_mean_motion_dot": -7.8e-07,
        "meta_mean_motion_ddot": 0,
        "tle_line1": "1 31862U 07032A   25351.29367497 -.00000078  00000+0  00000+0 0  9999",
        "tle_line2": "2 31862   0.0146 159.5204 0000366  48.9964 240.5776  1.00269426 43765"
      },
      "geometry": {
        "type": "Point",
        "coordinates": [
          -138.74255989349626,
          0.00988355774980751
        ]
      }
    },
    {
      "type": "Feature",
      "properties": {
        "norad_id": 32253,
        "name": "INTELSAT 11 (IS-11)",
        "group": "intelsat",
        "lat": 3.0889610889536474,
        "lon": 167.99441626709879,
        "alt_km": 36125.47463078468,
        "timestamp": "2025-12-17T15:50:09.444587+00:00",
        "meta_object_name": "INTELSAT 11 (IS-11)",
        "meta_object_id": "2007-044B",
        "meta_epoch": "2025-12-17T07:08:04.843392",
        "meta_mean_motion": 0.99051025,
        "meta_eccentricity": 0.00086065,
        "meta_inclination": 3.0916,
        "meta_ra_of_asc_node": 80.9265,
        "meta_arg_of_pericenter": 167.7417,
        "meta_mean_anomaly": 150.1516,
        "meta_ephemeris_type": 0,
        "meta_classification_type": "U",
        "meta_norad_cat_id": 32253,
        "meta_element_set_no": 999,
        "meta_rev_at_epoch": 6664,
        "meta_bstar": 0,
        "meta_mean_motion_dot": 2.1e-07,
        "meta_mean_motion_ddot": 0,
        "tle_line1": "1 32253U 07044B   25351.29727828  .00000021  00000+0  00000+0 0  9992",
        "tle_line2": "2 32253   3.0916  80.9265 0008606 167.7417 150.1516  0.99051025 66641"
      },
      "geometry": {
        "type": "Point",
        "coordinates": [
          167.99441626709879,
          3.0889610889536474
        ]
      }
    },
    {
      "type": "Feature",
      "properties": {
        "norad_id": 32388,
        "name": "HORIZONS-2",
        "group": "intelsat",
        "lat": 0.44107327411989133,
        "lon": -109.73542171931827,
        "alt_km": 35767.98817823392,
        "timestamp": "2025-12-17T15:50:09.444599+00:00",
        "meta_object_name": "HORIZONS-2",
        "meta_object_id": "2007-063B",
        "meta_epoch": "2025-12-17T04:24:51.296256",
        "meta_mean_motion": 1.00272984,
        "meta_eccentricity": 0.00045758,
        "meta_inclination": 2.1326,
        "meta_ra_of_asc_node": 82.9158,
        "meta_arg_of_pericenter": 191.1459,
        "meta_mean_anomaly": 164.4271,
        "meta_ephemeris_type": 0,
        "meta_classification_type": "U",
        "meta_norad_cat_id": 32388,
        "meta_element_set_no": 999,
        "meta_rev_at_epoch": 6598,
        "meta_bstar": 0,
        "meta_mean_motion_dot": -2.31e-06,
        "meta_mean_motion_ddot": 0,
        "tle_line1": "1 32388U 07063B   25351.18392704 -.00000231  00000+0  00000+0 0  9995",
        "tle_line2": "2 32388   2.1326  82.9158 0004575 191.1459 164.4271  1.00272984 65980"
      },
      "geometry": {
        "type": "Point",
        "coordinates": [
          -109.73542171931827,
          0.44107327411989133
        ]
      }
    },
    {
      "type": "Feature",
      "properties": {
        "norad_id": 32729,
        "name": "DIRECTV 11",
        "group": "intelsat",
        "lat": -0.005780679861206833,
        "lon": -135.11948927603524,
        "alt_km": 35785.171739204816,
        "timestamp": "2025-12-17T15:50:09.444611+00:00",
        "meta_object_name": "DIRECTV 11",
        "meta_object_id": "2008-013A",
        "meta_epoch": "2025-12-16T21:26:45.259296",
        "meta_mean_motion": 1.00271167,
        "meta_eccentricity": 5.224e-05,
        "meta_inclination": 0.0169,
        "meta_ra_of_asc_node": 231.5018,
        "meta_arg_of_pericenter": 293.6568,
        "meta_mean_anomaly": 143.1244,
        "meta_ephemeris_type": 0,
        "meta_classification_type": "U",
        "meta_norad_cat_id": 32729,
        "meta_element_set_no": 999,
        "meta_rev_at_epoch": 4376,
        "meta_bstar": 0,
        "meta_mean_motion_dot": -1.01e-06,
        "meta_mean_motion_ddot": 0,
        "tle_line1": "1 32729U 08013A   25350.89357939 -.00000101  00000+0  00000+0 0  9994",
        "tle_line2": "2 32729   0.0169 231.5018 0000522 293.6568 143.1244  1.00271167 43763"
      },
      "geometry": {
        "type": "Point",
        "coordinates": [
          -135.11948927603524,
          -0.005780679861206833
        ]
      }
    },
    {
      "type": "Feature",
      "properties": {
        "norad_id": 32951,
        "name": "GALAXY 18 (G-18)",
        "group": "intelsat",
        "lat": -0.0013262291397549359,
        "lon": -158.96944686628612,
        "alt_km": 35782.09743268597,
        "timestamp": "2025-12-17T15:50:09.444623+00:00",
        "meta_object_name": "GALAXY 18 (G-18)",
        "meta_object_id": "2008-024A",
        "meta_epoch": "2025-12-17T06:30:24.768000",
        "meta_mean_motion": 1.00272901,
        "meta_eccentricity": 0.00028344,
        "meta_inclination": 0.0052,
        "meta_ra_of_asc_node": 80.5939,
        "meta_arg_of_pericenter": 192.8645,
        "meta_mean_anomaly": 147.2943,
        "meta_ephemeris_type": 0,
        "meta_classification_type": "U",
        "meta_norad_cat_id": 32951,
        "meta_element_set_no": 999,
        "meta_rev_at_epoch": 4402,
        "meta_bstar": 0,
        "meta_mean_motion_dot": 5e-07,
        "meta_mean_motion_ddot": 0,
        "tle_line1": "1 32951U 08024A   25351.27112000  .00000050  00000+0  00000+0 0  9996",
        "tle_line2": "2 32951   0.0052  80.5939 0002834 192.8645 147.2943  1.00272901 44027"
      },
      "geometry": {
        "type": "Point",
        "coordinates": [
          -158.96944686628612,
          -0.0013262291397549359
        ]
      }
    },
    {
      "type": "Feature",
      "properties": {
        "norad_id": 33153,
        "name": "INTELSAT 25 (IS-25)",
        "group": "intelsat",
        "lat": -1.140976763016134,
        "lon": -67.42873943352524,
        "alt_km": 35768.09170089475,
        "timestamp": "2025-12-17T15:50:09.444635+00:00",
        "meta_object_name": "INTELSAT 25 (IS-25)",
        "meta_object_id": "2008-034A",
        "meta_epoch": "2025-12-17T04:36:57.636864",
        "meta_mean_motion": 1.00271025,
        "meta_eccentricity": 0.00048196,
        "meta_inclination": 2.2387,
        "meta_ra_of_asc_node": 82.6028,
        "meta_arg_of_pericenter": 184.2545,
        "meta_mean_anomaly": 216.958,
        "meta_ephemeris_type": 0,
        "meta_classification_type": "U",
        "meta_norad_cat_id": 33153,
        "meta_element_set_no": 999,
        "meta_rev_at_epoch": 6387,
        "meta_bstar": 0,
        "meta_mean_motion_dot": -2.01e-06,
        "meta_mean_motion_ddot": 0,
        "tle_line1": "1 33153U 08034A   25351.19233376 -.00000201  00000+0  00000+0 0  9992",
        "tle_line2": "2 33153   2.2387  82.6028 0004819 184.2545 216.9580  1.00271025 63879"
      },
      "geometry": {
        "type": "Point",
        "coordinates": [
          -67.42873943352524,
          -1.140976763016134
        ]
      }
    }
  ]
}